00687   11.70  0.15 K205V 208.31146   52.74842  334.33960   14.88014  0.2726846  0.21962793   2.7206813  0 E2020-QM5  2276  36 1909-2020 0.40 M-v 3Ek Pan        0000    (687) Tinette            20200814
00688   10.88  0.15 K205V  20.62119  138.96893  170.83663   10.24448  0.1393085  0.22246247   2.6975213  0 E2020-QM5  2822  52 1909-2020 0.43 M-v 3Ek Pan        0000    (688) Melanie            20200813
00689   12.30  0.15 K205V 148.31002  188.51231  168.12242    5.74103  0.2292508  0.27964349   2.3159699  0 E2020-QM5  3144  43 1909-2020 0.46 M-v 3Ek Pan        0000    (689) Zita               20200613
00690    8.07  0.15 K205V 301.32863  114.10896  253.12316   11.25291  0.1782745  0.17602706   3.1531872  0 E2020-QM5  3593  68 1902-2020 0.67 M-v 3Ek Pan        0000    (690) Wratislavia        20200813
00691    9.34  0.15 K205V  93.60493  304.31070   87.98146   13.01268  0.1230441  0.18858231   3.0116332  0 E2020-QM5  2735  62 1909-2020 0.41 M-v 3Ek Pan        0000    (691) Lehigh             20200618
00692    9.02  0.15 K205V   9.09655   53.98537   63.46972   26.07342  0.1687863  0.15817689   3.3861592  0 E2020-QM5  2283  53 1901-2020 0.41 M-v 3Ek Pan        0000    (692) Hippodamia         20200618
00693    9.57  0.15 K205V  58.18432  284.69111  351.71600   14.19068  0.0313034  0.19523301   2.9428438  0 E2020-QM5  2680  49 1909-2020 0.48 M-v 3Ek Pan        0000    (693) Zerbinetta         20200813
00694    9.23  0.15 K205V 156.52455  111.78968  229.99357   15.88763  0.3224980  0.22570773   2.6716020  0 E2020-QM5  2961  55 1909-2020 0.43 M-v 3Ek Pan        0000    (694) Ekard              20200629
00695    9.10  0.15 K205V 164.28084   80.00131  275.53161   13.84746  0.1598671  0.24352127   2.5396749  0 E2020-QM5  2795  53 1909-2020 0.37 M-v 3Ek Pan        0000    (695) Bella              20200706
00696    9.58  0.15 K205V 192.43093  103.88966  299.50685   13.03720  0.2502745  0.17469161   3.1692368  0 E2020-QM5  2666  57 1910-2020 0.42 M-v 3Ek Pan        0000    (696) Leonora            20200814
00697    9.52  0.15 K205V 345.25192  332.87587   15.42858   15.12200  0.1543739  0.20149928   2.8815117  0 E2020-QM5  2925  60 1910-2020 0.42 M-v 3Ek Pan        0000    (697) Galilea            20200814
00698   10.96  0.15 K205V 269.91996   98.68727   40.62963   11.53214  0.1108759  0.20304456   2.8668731  0 E2020-QM5  2908  42 1908-2020 0.44 M-v 3Ek Pan        0000    (698) Ernestina          20200810
00699   11.42  0.15 K205V 331.08482   91.33514  242.55178   15.29663  0.4103792  0.23343710   2.6122984  0 E2020-QM5  2649  40 1902-2020 0.43 M-v 3Ek Pan        0005    (699) Hela               20200813
00700   11.05  0.15 K205V  56.70573  102.05654   96.81506    6.78979  0.1036724  0.29597241   2.2299848  0 E2020-QM5  2913  55 1893-2020 0.43 M-v 3Ek Pan        0000    (700) Auravictrix        20200814
00701    9.21  0.15 K205V  75.37601  328.16616  243.70298    7.13377  0.0353028  0.18796053   3.0182713  0 E2020-QM5  3330  68 1899-2020 0.44 M-v 3Ek Pan        0000    (701) Oriola             20200813
00702    7.35  0.15 K205V 121.91042  351.95815  289.74257   20.60217  0.0171019  0.17271251   3.1934015  0 E2020-QM5  3149  59 1910-2020 0.45 M-v 3Ek Pan        0000    (702) Alauda             20200811
00703   12.54  0.15 K205V  54.37503  174.91951  213.75427    2.45798  0.1374179  0.30726646   2.1750001  0 E2020-QM5  3045  44 1910-2020 0.43 M-v 3Ek Pan        0000    (703) Noemi              20200323
00704    6.38  0.15 K205V 174.45962   94.87291  280.28671   17.31016  0.1550201  0.18442832   3.0566871  0 E2020-QM5  4956  81 1910-2020 0.43 M-v 3Ek Pan        0000    (704) Interamnia         20200805
00705    8.48  0.15 K205V 263.53563  102.67215    2.79208   25.01889  0.0502572  0.19731094   2.9221462  0 E2020-QM5  2444  53 1895-2020 0.45 M-v 3Ek Pan        0000    (705) Erminia            20200812
00706   11.05  0.15 K205V 124.51870   31.08993  325.34352   14.43108  0.1944338  0.21857531   2.7294092  0 E2020-QM5  2758  42 1910-2020 0.41 M-v 3Ek Pan        0000    (706) Hirundo            20200603
00707   12.15  0.15 K205V  63.50504   90.87731  281.90357    4.27346  0.1079887  0.30611113   2.1804693  0 E2020-QM5  2950  48 1910-2020 0.44 M-v 3Ek Pan        0000    (707) Steina             20200305
00708   10.61  0.15 K205V 325.21689  197.18008  355.17315    3.48975  0.0857486  0.22588157   2.6702311  0 E2020-QM5  3514  62 1892-2020 0.42 M-v 3Ek Pan        0000    (708) Raphaela           20200622
00709    9.15  0.15 K205V 131.96978   19.28376  324.37784   16.26181  0.1126779  0.19791453   2.9162019  0 E2020-QM5  2825  59 1906-2020 0.43 M-v 3Ek Pan        0000    (709) Fringilla          20200603
00710   11.19  0.15 K205V 192.12134   99.65275  140.17477    1.75075  0.1327519  0.17789897   3.1310290  0 E2020-QM5  3305  49 1911-2020 0.46 M-v 3Ek Pan        0000    (710) Gertrud            20200814
00711   11.74  0.15 K205V 117.55525  300.23448  357.05579    6.08946  0.1952373  0.29449218   2.2374510  0 E2020-QM5  2841  41 1911-2020 0.44 M-v 3Ek Pan        0000    (711) Marmulla           20200226
00712    8.67  0.15 K205V 193.18671  181.42887  230.82013   12.76279  0.1866482  0.23853033   2.5749787  0 E2020-QM5  3335  62 1911-2020 0.49 M-v 3Ek Pan        0000    (712) Boliviana          20200813
00713    8.99  0.15 K205V 352.95219  138.14062  217.48527   10.34410  0.1554047  0.15738937   3.3974451  0 E2020-QM5  3080  56 1909-2020 0.44 M-v 3Ek Pan        0000    (713) Luscinia           20200812
00714    9.07  0.15 K205V 110.95775  231.42041  233.83736   14.27083  0.0567584  0.24425168   2.5346092  0 E2020-QM5  3078  58 1911-2020 0.42 M-v 3Ek Pan        0000    (714) Ulula              20200813
00715   10.12  0.15 K205V 130.69497  301.03382   46.07601   13.81773  0.0831228  0.21395416   2.7685703  0 E2020-QM5  3724  62 1911-2020 0.57 M-v 3Ek Pan        0000    (715) Transvaalia        20200603
00716   10.70  0.15 K205V 136.20772   56.81087  145.88546    8.48722  0.0866970  0.20902168   2.8119558  0 E2020-QM5  2842  50 1906-2020 0.44 M-v 3Ek Pan        0000    (716) Berkeley           20200813
00717   10.96  0.15 K205V 150.81957   24.40299  343.55268    1.64628  0.2632676  0.17724551   3.1387199  0 E2020-QM5  3315  55 1911-2020 0.45 M-v 3Ek Pan        0000    (717) Wisibada           20200710
00718    9.67  0.15 K205V 263.15012  174.54774   38.53232    6.92649  0.1988493  0.18433849   3.0576800  0 E2020-QM5  3079  63 1902-2020 0.43 M-v 3Ek Pan        0000    (718) Erida              20200422
00719   15.50  0.15 K205V 140.27342  156.17631  183.86696   11.56749  0.5465585  0.22995520   2.6386021  0 E2020-QM5  1917  20 1911-2020 0.40 M-v 3Ek Pan        1804    (719) Albert             20200227
00720    9.65  0.15 K205V 277.76385  112.45823   35.69381    2.35375  0.0185653  0.20091334   2.8871114  0 E2020-QM5  3465  78 1894-2020 0.48 M-v 3Ek Pan        0000    (720) Bohlinia           20200814
00721    9.38  0.15 K205V  65.39847  352.57229   38.40030    8.32008  0.1169331  0.14710396   3.5540195  0 E2020-QM5  2795  61 1911-2020 0.46 M-v 3Ek Pan        0000    (721) Tabora             20200502
00722   12.37  0.15 K205V  47.84483  257.22817   45.66787    5.63710  0.1446726  0.30797534   2.1716613  0 E2020-QM5  2525  51 1910-2020 0.40 M-v 3Ek Pan        0000    (722) Frieda             20200810
00723   10.04  0.15 K205V 333.36339  250.47607  163.18597    4.99010  0.0549677  0.19039513   2.9924862  0 E2020-QM5  3154  67 1903-2020 0.45 M-v 3Ek Pan        0000    (723) Hammonia           20200810
00724   13.91  0.15 K205V  71.99354  205.84620  204.23843   11.71244  0.2509008  0.25630091   2.4545353  0 E2020-QM5  1649  27 1911-2020 0.51 M-v 3Ek Pan        0000    (724) Hapag              20200525
00725   11.84  0.15 K205V 114.51459  323.35548   68.67923    3.79016  0.2215979  0.23891738   2.5721970  0 E2020-QM5  3264  48 1911-2020 0.42 M-v 3Ek Pan        0000    (725) Amanda             20200711
00726   10.49  0.15 K205V 179.02348  113.21149  241.97628   15.43540  0.2850986  0.23987681   2.5653337  0 E2020-QM5  2444  40 1911-2020 0.38 M-v 3Ek Pan        0000    (726) Joella             20200717
00727    9.63  0.15 K205V 186.85694  274.52086  133.05766   15.06091  0.1057576  0.23975410   2.5662090  0 E2020-QM5  3200  54 1900-2020 0.39 M-v 3Ek Pan        0000    (727) Nipponia           20200813
00728   12.92  0.15 K205V   5.74012   54.97494   82.64198    4.25715  0.0880273  0.29130417   2.2537457  0 E2020-QM5  2828  33 1907-2020 0.45 M-v 3Ek Pan        0000    (728) Leonisis           20200603
00729    9.40  0.15 K205V 164.73216   87.75579  124.32787   18.05085  0.0974331  0.21511151   2.7586311  0 E2020-QM5  2728  47 1912-2020 0.41 M-v 3Ek Pan        0000    (729) Watsonia           20200809
00730   13.75  0.15 K205V  52.39329  123.59756   95.07354    4.23475  0.1778042  0.29321120   2.2439629  0 E2020-QM5  2462  24 1912-2020 0.48 M-v 3Ek Pan        0000    (730) Athanasia          20200812
00731    9.73  0.15 K205V 201.03266  288.61802   46.13648   10.68871  0.1411775  0.19089096   2.9873021  0 E2020-QM5  3028  59 1912-2020 0.42 M-v 3Ek Pan        0000    (731) Sorga              20200719
00732   10.56  0.15 K205V 359.80278   64.90031  173.34579   10.99405  0.0436244  0.25605098   2.4561323  0 E2020-QM5  3251  56 1912-2020 0.40 M-v 3Ek Pan        0000    (732) Tjilaki            20200813
00733    9.23  0.15 K205V 279.05338  189.72029  340.98381   20.28505  0.0585235  0.15720392   3.4001166  0 E2020-QM5  2547  51 1909-2020 0.43 M-v 3Ek Pan        0000    (733) Mocia              20200812
00734    9.97  0.15 K205V  51.85182   66.24417    3.13487    5.80481  0.0999870  0.17645657   3.1480684  0 E2020-QM5  3113  60 1912-2020 0.45 M-v 3Ek Pan        0000    (734) Benda              20200603
00735    9.82  0.15 K205V 346.72881  309.76408   42.95239   16.86604  0.3210030  0.21854169   2.7296891  0 E2020-QM5  2826  47 1912-2020 0.45 M-v 3Ek Pan        0000    (735) Marghanna          20200811
